[{"OBJECT_NAME":"STARLINK-30214","OBJECT_ID":"2023-102H","EPOCH":"2026-03-09T22:00:01.999584","MEAN_MOTION":15.16864915,"ECCENTRICITY":0.00019718,"INCLINATION":42.9997,"RA_OF_ASC_NODE":246.4866,"ARG_OF_PERICENTER":280.5737,"MEAN_ANOMALY":98.4796,"EPHEMERIS_TYPE":0,"CLASSIFICATION_TYPE":"U","NORAD_CAT_ID":57411,"ELEMENT_SET_NO":999,"REV_AT_EPOCH":578,"BSTAR":0.0062663792,"MEAN_MOTION_DOT":0.00127643,"MEAN_MOTION_DDOT":0},{"OBJECT_NAME":"OBJECT C","OBJECT_ID":"2026-023C","EPOCH":"2026-03-09T17:14:42.726048","MEAN_MOTION":15.23105823,"ECCENTRICITY":0.00205519,"INCLINATION":96.6388,"RA_OF_ASC_NODE":141.6892,"ARG_OF_PERICENTER":122.5463,"MEAN_ANOMALY":237.7764,"EPHEMERIS_TYPE":0,"CLASSIFICATION_TYPE":"U","NORAD_CAT_ID":67676,"ELEMENT_SET_NO":999,"REV_AT_EPOCH":502,"BSTAR":0.00045389382,"MEAN_MOTION_DOT":0.00010715,"MEAN_MOTION_DDOT":0}]
